ORBCOMM FM115           
1 41186U 15081H   24195.45002260  .00000982  00000+0  23396-3 0  9999
2 41186  46.9971 208.7957 0001677 298.8952  61.1766 14.60877369458218
ORBCOMM FM108           
1 41187U 15081J   24195.47252436  .00001183  00000+0  29947-3 0  9996
2 41187  47.0048 265.0228 0002778 220.0235 140.0445 14.56725398457384
ORBCOMM FM117           
1 41188U 15081K   24195.50689759  .00001212  00000+0  30578-3 0  9998
2 41188  47.0009 263.7320 0003589 225.4629 134.5963 14.56727349457434
ORBCOMM FM116           
1 41189U 15081L   24195.56444669  .00001588  00000+0  38896-3 0  9991
2 41189  47.0034 353.2803 0002584 277.7033  82.3558 14.56739674456250
