<?xml version="1.0" encoding="UTF-8"?>
<ndm xmlns:xsi="http://www.w3.org/2001/XMLSchema-instance" xsi:noNamespaceSchemaLocation="https://sanaregistry.org/r/ndmxml_unqualified/ndmxml-2.0.0-master-2.0.xsd">
<omm id="CCSDS_OMM_VERS" version="2.0">
<header><CREATION_DATE/><ORIGINATOR/></header><body><segment><metadata><OBJECT_NAME>ORBCOMM FM115</OBJECT_NAME><OBJECT_ID>2015-081H</OBJECT_ID><CENTER_NAME>EARTH</CENTER_NAME><REF_FRAME>TEME</REF_FRAME><TIME_SYSTEM>UTC</TIME_SYSTEM><MEAN_ELEMENT_THEORY>SGP4</MEAN_ELEMENT_THEORY></metadata><data><meanElements><EPOCH>2024-07-13T10:48:01.952640</EPOCH><MEAN_MOTION>14.60877369</MEAN_MOTION><ECCENTRICITY>.0001677</ECCENTRICITY><INCLINATION>46.9971</INCLINATION><RA_OF_ASC_NODE>208.7957</RA_OF_ASC_NODE><ARG_OF_PERICENTER>298.8952</ARG_OF_PERICENTER><MEAN_ANOMALY>61.1766</MEAN_ANOMALY></meanElements><tleParameters><EPHEMERIS_TYPE>0</EPHEMERIS_TYPE><CLASSIFICATION_TYPE>U</CLASSIFICATION_TYPE><NORAD_CAT_ID>41186</NORAD_CAT_ID><ELEMENT_SET_NO>999</ELEMENT_SET_NO><REV_AT_EPOCH>45821</REV_AT_EPOCH><BSTAR>.23396E-3</BSTAR><MEAN_MOTION_DOT>.982E-5</MEAN_MOTION_DOT><MEAN_MOTION_DDOT>0</MEAN_MOTION_DDOT></tleParameters></data></segment></body></omm>
<omm id="CCSDS_OMM_VERS" version="2.0">
<header><CREATION_DATE/><ORIGINATOR/></header><body><segment><metadata><OBJECT_NAME>ORBCOMM FM108</OBJECT_NAME><OBJECT_ID>2015-081J</OBJECT_ID><CENTER_NAME>EARTH</CENTER_NAME><REF_FRAME>TEME</REF_FRAME><TIME_SYSTEM>UTC</TIME_SYSTEM><MEAN_ELEMENT_THEORY>SGP4</MEAN_ELEMENT_THEORY></metadata><data><meanElements><EPOCH>2024-07-13T11:20:26.104704</EPOCH><MEAN_MOTION>14.56725398</MEAN_MOTION><ECCENTRICITY>.0002778</ECCENTRICITY><INCLINATION>47.0048</INCLINATION><RA_OF_ASC_NODE>265.0228</RA_OF_ASC_NODE><ARG_OF_PERICENTER>220.0235</ARG_OF_PERICENTER><MEAN_ANOMALY>140.0445</MEAN_ANOMALY></meanElements><tleParameters><EPHEMERIS_TYPE>0</EPHEMERIS_TYPE><CLASSIFICATION_TYPE>U</CLASSIFICATION_TYPE><NORAD_CAT_ID>41187</NORAD_CAT_ID><ELEMENT_SET_NO>999</ELEMENT_SET_NO><REV_AT_EPOCH>45738</REV_AT_EPOCH><BSTAR>.29947E-3</BSTAR><MEAN_MOTION_DOT>.1183E-4</MEAN_MOTION_DOT><MEAN_MOTION_DDOT>0</MEAN_MOTION_DDOT></tleParameters></data></segment></body></omm>
<omm id="CCSDS_OMM_VERS" version="2.0">
<header><CREATION_DATE/><ORIGINATOR/></header><body><segment><metadata><OBJECT_NAME>ORBCOMM FM117</OBJECT_NAME><OBJECT_ID>2015-081K</OBJECT_ID><CENTER_NAME>EARTH</CENTER_NAME><REF_FRAME>TEME</REF_FRAME><TIME_SYSTEM>UTC</TIME_SYSTEM><MEAN_ELEMENT_THEORY>SGP4</MEAN_ELEMENT_THEORY></metadata><data><meanElements><EPOCH>2024-07-13T12:09:55.951776</EPOCH><MEAN_MOTION>14.56727349</MEAN_MOTION><ECCENTRICITY>.0003589</ECCENTRICITY><INCLINATION>47.0009</INCLINATION><RA_OF_ASC_NODE>263.7320</RA_OF_ASC_NODE><ARG_OF_PERICENTER>225.4629</ARG_OF_PERICENTER><MEAN_ANOMALY>134.5963</MEAN_ANOMALY></meanElements><tleParameters><EPHEMERIS_TYPE>0</EPHEMERIS_TYPE><CLASSIFICATION_TYPE>U</CLASSIFICATION_TYPE><NORAD_CAT_ID>41188</NORAD_CAT_ID><ELEMENT_SET_NO>999</ELEMENT_SET_NO><REV_AT_EPOCH>45743</REV_AT_EPOCH><BSTAR>.30578E-3</BSTAR><MEAN_MOTION_DOT>.1212E-4</MEAN_MOTION_DOT><MEAN_MOTION_DDOT>0</MEAN_MOTION_DDOT></tleParameters></data></segment></body></omm>
<omm id="CCSDS_OMM_VERS" version="2.0">
<header><CREATION_DATE/><ORIGINATOR/></header><body><segment><metadata><OBJECT_NAME>ORBCOMM FM116</OBJECT_NAME><OBJECT_ID>2015-081L</OBJECT_ID><CENTER_NAME>EARTH</CENTER_NAME><REF_FRAME>TEME</REF_FRAME><TIME_SYSTEM>UTC</TIME_SYSTEM><MEAN_ELEMENT_THEORY>SGP4</MEAN_ELEMENT_THEORY></metadata><data><meanElements><EPOCH>2024-07-13T13:32:48.194016</EPOCH><MEAN_MOTION>14.56739674</MEAN_MOTION><ECCENTRICITY>.0002584</ECCENTRICITY><INCLINATION>47.0034</INCLINATION><RA_OF_ASC_NODE>353.2803</RA_OF_ASC_NODE><ARG_OF_PERICENTER>277.7033</ARG_OF_PERICENTER><MEAN_ANOMALY>82.3558</MEAN_ANOMALY></meanElements><tleParameters><EPHEMERIS_TYPE>0</EPHEMERIS_TYPE><CLASSIFICATION_TYPE>U</CLASSIFICATION_TYPE><NORAD_CAT_ID>41189</NORAD_CAT_ID><ELEMENT_SET_NO>999</ELEMENT_SET_NO><REV_AT_EPOCH>45625</REV_AT_EPOCH><BSTAR>.38896E-3</BSTAR><MEAN_MOTION_DOT>.1588E-4</MEAN_MOTION_DOT><MEAN_MOTION_DDOT>0</MEAN_MOTION_DDOT></tleParameters></data></segment></body></omm>
</ndm>
